{
  "norad_id": 68339,
  "name": "STARLINK-37200",
  "history": [
    {
      "epoch": "2026-03-31T16:00:01.999584Z",
      "apogee_km": 326.103210235392,
      "perigee_km": 324.4193165916222,
      "latitude_deg": -52.012363879507035,
      "longitude_deg": 111.00509658255463,
      "height_km": 344.1203309235575,
      "semi_major_axis_km": 6703.398263413506,
      "eccentricity": 0.0001256,
      "inclination_deg": 53.1592,
      "raan_deg": 252.6033,
      "arg_perigee_deg": 99.8036,
      "mean_anomaly_deg": 180.8964,
      "mean_motion_rev_day": 15.81831531
    }
  ]
}